KUIPER-00513            
1 69598U 26140G   26194.44599801  .00007544  00000+0  20793-3 0  9995
2 69598  51.8809 271.7204 0007367 331.9746  28.0843 15.38127694  5274
KUIPER-00516            
1 69599U 26140H   26194.45365403  .00012572  00000+0  34543-3 0  9991
2 69599  51.8784 271.7596 0006729 348.5810  11.5023 15.37575900  5271
KUIPER-00517            
1 69600U 26140J   26194.49650280  .00020755  00000+0  54022-3 0  9994
2 69600  51.8779 271.3024 0010804 285.7132  74.2664 15.38808019  5287
KUIPER-00520            
1 69601U 26140K   26194.45458612  .00009755  00000+0  27007-3 0  9996
2 69601  51.8819 271.7790 0006774 350.2506   9.8348 15.37625651  5271
KUIPER-00522            
1 69602U 26140L   26194.42813084  .00018038  00000+0  47320-3 0  9996
2 69602  51.8788 271.5961 0013481 257.5942 102.3537 15.38633873  5276
KUIPER-00528            
1 69603U 26140M   26194.45710362  .00014929  00000+0  40948-3 0  9999
2 69603  51.8780 271.7822 0005289 356.8638   3.2315 15.37478073  5270
KUIPER-00532            
1 69604U 26140N   26194.46733047 -.00001101  00000+0 -19589-4 0  9994
2 69604  51.8801 271.8505 0005709  25.8262 334.3009 15.36572721  5279
KUIPER-00533            
1 69605U 26140P   26194.44215966  .00010189  00000+0  27596-3 0  9998
2 69605  51.8795 271.6855 0007881 320.9499  39.0918 15.38246977  5273
KUIPER-00534            
1 69606U 26140Q   26194.48805400  .00018811  00000+0  49181-3 0  9995
2 69606  51.8817 271.2551 0013683 259.7255 100.2190 15.38704340  5281
KUIPER-00537            
1 69607U 26140R   26194.42363157  .00021784  00000+0  65641-3 0  9990
2 69607  51.8797 272.3084 0009654  48.0807 312.1000 15.34217577  5266
KUIPER-00538            
1 69608U 26140S   26194.45220389  .00007619  00000+0  21275-3 0  9999
2 69608  51.8807 271.7612 0006911 337.9709  22.0980 15.37704823  5276
KUIPER-00540            
1 69609U 26140T   26194.46325993  .00011571  00000+0  32531-3 0  9997
2 69609  51.8824 271.8330 0006492  18.5876 341.5347 15.36947086  5270
KUIPER-00541            
1 69610U 26140U   26194.50001156 -.00007345  00000+0 -18057-3 0  9999
2 69610  51.8811 271.4184 0007690 318.1085   3.6149 15.38392412  5199
KUIPER-00542            
1 69611U 26140V   26194.44061348  .00023461  00000+0  62044-3 0  9992
2 69611  51.8779 271.6832 0007537 294.9408  65.0795 15.38267694  5276
KUIPER-00543            
1 69612U 26140W   26194.46767917  .00017683  00000+0  49295-3 0  9992
2 69612  51.8799 271.8471 0007255  31.7570 328.3853 15.36825871  5279
KUIPER-00544            
1 69613U 26140X   26194.44496712  .00015688  00000+0  42036-3 0  9992
2 69613  51.8785 271.7055 0006611 313.6004  46.4434 15.38153379  5273
KUIPER-00546            
1 69614U 26140Y   26194.48858119  .00017630  00000+0  45921-3 0  9995
2 69614  51.8793 271.2530 0014540 256.4285 103.5083 15.38855435  5289
KUIPER-00547            
1 69615U 26140Z   26194.43884664  .00010524  00000+0  28774-3 0  9997
2 69615  51.8819 271.6758 0010935 283.9761  76.0010 15.37892177  5279
KUIPER-00549            
1 69616U 26140AA  26194.45861238  .00014410  00000+0  39744-3 0  9999
2 69616  51.8802 271.7979 0007851  10.3007 349.8139 15.37321346  5274
KUIPER-00550            
1 69617U 26140AB  26194.50001156 -.00009497  00000+0 -29050-3 0  9991
2 69617  51.8784 272.0819 0007801  56.7555 293.8282 15.32067787  4523
KUIPER-00551            
1 69618U 26140AC  26194.43101324  .00024901  00000+0  65439-3 0  9998
2 69618  51.8767 271.6138 0012862 258.5596 101.3947 15.38372797  5274
KUIPER-00554            
1 69619U 26140AD  26194.37208792  .00013165  00000+0  35644-3 0  9994
2 69619  51.8784 271.9686 0011047 284.4543  75.5218 15.37954532  5263
KUIPER-00555            
1 69620U 26140AE  26194.43435882  .00010737  00000+0  29300-3 0  9999
2 69620  51.8817 271.6476 0011419 272.6291  87.3389 15.37923651  5277
KUIPER-00556            
1 69621U 26140AF  26193.84906221 -.00181525  00000+0 -48965-2 0  9997
2 69621  51.8804 274.4699 0010620 249.9236 110.0608 15.37854962  5187
KUIPER-00557            
1 69622U 26140AG  26194.44241714  .00013577  00000+0  37277-3 0  9998
2 69622  51.8797 271.6977 0009795 292.8339  67.1613 15.37501873  5277
KUIPER-00560            
1 69623U 26140AH  26194.43364150 -.00202603  00000+0 -53600-2 0  9997
2 69623  51.8787 271.6344 0010496 273.7935  86.1852 15.38539344  5276
KUIPER-00561            
1 69624U 26140AJ  26192.74769253 -.00566727  00000+0 -15961-1 0  9990
2 69624  51.8826 279.8412 0009245 285.6749  74.3218 15.38107852  5014
KUIPER-00564            
1 69625U 26140AK  26194.43905017 -.00028077  00000+0 -74902-3 0  9992
2 69625  51.8803 271.6737 0009106 291.5135  68.4880 15.37234658  5272
KUIPER-00567            
1 69626U 26140AL  26194.43161267  .00014281  00000+0  38233-3 0  9991
2 69626  51.8817 271.6217 0011778 274.1062  85.8579 15.38220368  5277
KUIPER-00573            
1 69627U 26140AM  26194.44618207  .00012969  00000+0  35726-3 0  9999
2 69627  51.8781 271.7133 0009313 278.9013  81.0919 15.37446650  5275
